{
  "type": "FeatureCollection",
  "features": [
    {
      "type": "Feature",
      "properties": {
        "norad_id": 42917,
        "name": "QZS-3 (QZSS/PRN 199)",
        "group": "gnss",
        "lat": -0.04715781633078295,
        "lon": 132.72925635816668,
        "alt_km": 35791.98515563103,
        "timestamp": "2025-12-11T18:59:46.315399+00:00",
        "meta_object_name": "QZS-3 (QZSS/PRN 199)",
        "meta_object_id": "2017-048A",
        "meta_epoch": "2025-12-11T05:33:22.990176",
        "meta_mean_motion": 1.00272706,
        "meta_eccentricity": 0.00020726,
        "meta_inclination": 0.0614,
        "meta_ra_of_asc_node": 199.6875,
        "meta_arg_of_pericenter": 66.9167,
        "meta_mean_anomaly": 23.996,
        "meta_ephemeris_type": 0,
        "meta_classification_type": "U",
        "meta_norad_cat_id": 42917,
        "meta_element_set_no": 999,
        "meta_rev_at_epoch": 3037,
        "meta_bstar": 0,
        "meta_mean_motion_dot": -3.42e-06,
        "meta_mean_motion_ddot": 0,
        "tle_line1": "1 42917U 17048A   25345.23151609 -.00000342  00000+0  00000+0 0  9997",
        "tle_line2": "2 42917   0.0614 199.6875 0002072  66.9167  23.9960  1.00272706 30374"
      },
      "geometry": {
        "type": "Point",
        "coordinates": [
          132.72925635816668,
          -0.04715781633078295
        ]
      }
    },
    {
      "type": "Feature",
      "properties": {
        "norad_id": 42939,
        "name": "COSMOS 2522 (752)",
        "group": "gnss",
        "lat": -60.06009907648803,
        "lon": 140.64807893151308,
        "alt_km": 19127.92795506524,
        "timestamp": "2025-12-11T18:59:46.315410+00:00",
        "meta_object_name": "COSMOS 2522 (752)",
        "meta_object_id": "2017-055A",
        "meta_epoch": "2025-12-10T22:48:11.952576",
        "meta_mean_motion": 2.13101821,
        "meta_eccentricity": 0.00065249,
        "meta_inclination": 64.076,
        "meta_ra_of_asc_node": 198.29,
        "meta_arg_of_pericenter": 225.5352,
        "meta_mean_anomaly": 134.4806,
        "meta_ephemeris_type": 0,
        "meta_classification_type": "U",
        "meta_norad_cat_id": 42939,
        "meta_element_set_no": 999,
        "meta_rev_at_epoch": 6396,
        "meta_bstar": 0,
        "meta_mean_motion_dot": 5.1e-07,
        "meta_mean_motion_ddot": 0,
        "tle_line1": "1 42939U 17055A   25344.95013834  .00000051  00000+0  00000+0 0  9990",
        "tle_line2": "2 42939  64.0760 198.2900 0006524 225.5352 134.4806  2.13101821 63961"
      },
      "geometry": {
        "type": "Point",
        "coordinates": [
          140.64807893151308,
          -60.06009907648803
        ]
      }
    },
    {
      "type": "Feature",
      "properties": {
        "norad_id": 42965,
        "name": "QZS-4 (QZSS/PRN 195)",
        "group": "gnss",
        "lat": 19.532734940896397,
        "lon": 141.06259600971495,
        "alt_km": 37333.04999687438,
        "timestamp": "2025-12-11T18:59:46.315422+00:00",
        "meta_object_name": "QZS-4 (QZSS/PRN 195)",
        "meta_object_id": "2017-062A",
        "meta_epoch": "2025-12-10T21:00:10.699776",
        "meta_mean_motion": 1.00253232,
        "meta_eccentricity": 0.0752089,
        "meta_inclination": 40.2267,
        "meta_ra_of_asc_node": 345.8936,
        "meta_arg_of_pericenter": 271.5128,
        "meta_mean_anomaly": 274.0366,
        "meta_ephemeris_type": 0,
        "meta_classification_type": "U",
        "meta_norad_cat_id": 42965,
        "meta_element_set_no": 999,
        "meta_rev_at_epoch": 2991,
        "meta_bstar": 0,
        "meta_mean_motion_dot": -3.59e-06,
        "meta_mean_motion_ddot": 0,
        "tle_line1": "1 42965U 17062A   25344.87512384 -.00000359  00000+0  00000+0 0  9994",
        "tle_line2": "2 42965  40.2267 345.8936 0752089 271.5128 274.0366  1.00253232 29911"
      },
      "geometry": {
        "type": "Point",
        "coordinates": [
          141.06259600971495,
          19.532734940896397
        ]
      }
    },
    {
      "type": "Feature",
      "properties": {
        "norad_id": 43001,
        "name": "BEIDOU-3 M1 (C19)",
        "group": "gnss",
        "lat": 30.487885032369466,
        "lon": 92.16636424239455,
        "alt_km": 21525.952818921905,
        "timestamp": "2025-12-11T18:59:46.315434+00:00",
        "meta_object_name": "BEIDOU-3 M1 (C19)",
        "meta_object_id": "2017-069A",
        "meta_epoch": "2025-12-10T02:59:44.237184",
        "meta_mean_motion": 1.86231011,
        "meta_eccentricity": 0.0009053,
        "meta_inclination": 56.5252,
        "meta_ra_of_asc_node": 69.32,
        "meta_arg_of_pericenter": 303.7778,
        "meta_mean_anomaly": 56.1585,
        "meta_ephemeris_type": 0,
        "meta_classification_type": "U",
        "meta_norad_cat_id": 43001,
        "meta_element_set_no": 999,
        "meta_rev_at_epoch": 5508,
        "meta_bstar": 0,
        "meta_mean_motion_dot": -5.2e-07,
        "meta_mean_motion_ddot": 0,
        "tle_line1": "1 43001U 17069A   25344.12481756 -.00000052  00000+0  00000+0 0  9999",
        "tle_line2": "2 43001  56.5252  69.3200 0009053 303.7778  56.1585  1.86231011 55088"
      },
      "geometry": {
        "type": "Point",
        "coordinates": [
          92.16636424239455,
          30.487885032369466
        ]
      }
    },
    {
      "type": "Feature",
      "properties": {
        "norad_id": 43002,
        "name": "BEIDOU-3 M2 (C20)",
        "group": "gnss",
        "lat": 54.92915673368673,
        "lon": 139.5654074832875,
        "alt_km": 21526.594433109516,
        "timestamp": "2025-12-11T18:59:46.315445+00:00",
        "meta_object_name": "BEIDOU-3 M2 (C20)",
        "meta_object_id": "2017-069B",
        "meta_epoch": "2025-12-09T12:37:45.819264",
        "meta_mean_motion": 1.8623055,
        "meta_eccentricity": 0.0006254,
        "meta_inclination": 56.5238,
        "meta_ra_of_asc_node": 69.3764,
        "meta_arg_of_pericenter": 332.6094,
        "meta_mean_anomaly": 27.38,
        "meta_ephemeris_type": 0,
        "meta_classification_type": "U",
        "meta_norad_cat_id": 43002,
        "meta_element_set_no": 999,
        "meta_rev_at_epoch": 5506,
        "meta_bstar": 0,
        "meta_mean_motion_dot": -4.8e-07,
        "meta_mean_motion_ddot": 0,
        "tle_line1": "1 43002U 17069B   25343.52622476 -.00000048  00000+0  00000+0 0  9994",
        "tle_line2": "2 43002  56.5238  69.3764 0006254 332.6094  27.3800  1.86230550 55065"
      },
      "geometry": {
        "type": "Point",
        "coordinates": [
          139.5654074832875,
          54.92915673368673
        ]
      }
    },
    {
      "type": "Feature",
      "properties": {
        "norad_id": 43055,
        "name": "GSAT0215 (GALILEO 19)",
        "group": "gnss",
        "lat": -47.622575933768886,
        "lon": 176.89585055961751,
        "alt_km": 23225.04859932967,
        "timestamp": "2025-12-11T18:59:46.315461+00:00",
        "meta_object_name": "GSAT0215 (GALILEO 19)",
        "meta_object_id": "2017-079A",
        "meta_epoch": "2025-12-09T13:11:41.418816",
        "meta_mean_motion": 1.70473866,
        "meta_eccentricity": 0.00012854,
        "meta_inclination": 55.1311,
        "meta_ra_of_asc_node": 226.7257,
        "meta_arg_of_pericenter": 343.8684,
        "meta_mean_anomaly": 16.2123,
        "meta_ephemeris_type": 0,
        "meta_classification_type": "U",
        "meta_norad_cat_id": 43055,
        "meta_element_set_no": 999,
        "meta_rev_at_epoch": 4975,
        "meta_bstar": 0,
        "meta_mean_motion_dot": 1.1e-07,
        "meta_mean_motion_ddot": 0,
        "tle_line1": "1 43055U 17079A   25343.54978494  .00000011  00000+0  00000+0 0  9998",
        "tle_line2": "2 43055  55.1311 226.7257 0001285 343.8684  16.2123  1.70473866 49750"
      },
      "geometry": {
        "type": "Point",
        "coordinates": [
          176.89585055961751,
          -47.622575933768886
        ]
      }
    },
    {
      "type": "Feature",
      "properties": {
        "norad_id": 43056,
        "name": "GSAT0216 (GALILEO 20)",
        "group": "gnss",
        "lat": 46.94284605501241,
        "lon": -1.535318114261938,
        "alt_km": 23223.339553062073,
        "timestamp": "2025-12-11T18:59:46.315472+00:00",
        "meta_object_name": "GSAT0216 (GALILEO 20)",
        "meta_object_id": "2017-079B",
        "meta_epoch": "2025-12-10T10:15:48.535776",
        "meta_mean_motion": 1.70473969,
        "meta_eccentricity": 0.000248,
        "meta_inclination": 55.1311,
        "meta_ra_of_asc_node": 226.7014,
        "meta_arg_of_pericenter": 319.9818,
        "meta_mean_anomaly": 40.0811,
        "meta_ephemeris_type": 0,
        "meta_classification_type": "U",
        "meta_norad_cat_id": 43056,
        "meta_element_set_no": 999,
        "meta_rev_at_epoch": 4978,
        "meta_bstar": 0,
        "meta_mean_motion_dot": 9e-08,
        "meta_mean_motion_ddot": 0,
        "tle_line1": "1 43056U 17079B   25344.42764509  .00000009  00000+0  00000+0 0  9994",
        "tle_line2": "2 43056  55.1311 226.7014 0002480 319.9818  40.0811  1.70473969 49789"
      },
      "geometry": {
        "type": "Point",
        "coordinates": [
          -1.535318114261938,
          46.94284605501241
        ]
      }
    }
  ]
}